OBJECT_NAME,OBJECT_ID,EPOCH,MEAN_MOTION,ECCENTRICITY,INCLINATION,RA_OF_ASC_NODE,ARG_OF_PERICENTER,MEAN_ANOMALY,EPHEMERIS_TYPE,CLASSIFICATION_TYPE,NORAD_CAT_ID,ELEMENT_SET_NO,REV_AT_EPOCH,BSTAR,MEAN_MOTION_DOT,MEAN_MOTION_DDOT
TIANYAN 01,2019-093C,2026-05-13T05:50:25.033056,14.86461687,.00129867,97.7538,206.3266,195.7812,164.3001,0,U,44881,999,34622,.81586681E-4,.668E-5,0
TIANYAN 02,2019-093D,2026-05-13T06:43:27.621984,15.04767153,.001481,97.7909,227.7517,139.6006,220.6323,0,U,44882,999,34736,.32556115E-3,.4538E-4,0
CBERS 4A,2019-093E,2026-05-13T07:24:58.494240,14.81647857,.00009243,97.7510,201.6647,350.6746,9.4450,0,U,44883,999,34591,.55622996E-4,.387E-5,0
WEILAI 1R,2019-093F,2026-05-13T05:51:21.320064,15.00329618,.00153306,97.7828,223.0937,144.5377,215.6868,0,U,44884,999,34718,.26162076E-3,.3228E-4,0
FLORIPASAT-1,2019-093G,2026-05-13T06:56:18.546720,15.03475437,.00118595,97.7878,227.2787,182.8078,177.3083,0,U,44885,999,34740,.24891926E-3,.3333E-4,0
SHUNTIAN,2019-093H,2026-05-13T06:30:58.273056,14.94981416,.0011874,97.7996,221.6168,173.2097,186.9287,0,U,44886,999,34696,.19986285E-3,.2128E-4,0
ELEKTRO-L 3,2019-095A,2026-05-13T01:12:50.123232,1.00271714,.0001241,0.1650,79.0829,331.5024,274.4004,0,U,44903,999,2335,0,-.83E-6,0
GONETS-M 14,2019-096A,2026-05-13T06:32:59.385984,12.42868838,.0012198,82.5198,106.2857,226.7290,133.2772,0,U,44905,999,28934,-.78715078E-4,-.1E-7,0
GONETS-M 15,2019-096B,2026-05-13T07:15:23.159232,12.42869930,.00139247,82.5218,106.7235,251.7578,108.1986,0,U,44906,999,28931,-.41271876E-3,-.47E-6,0
GONETS-M 16,2019-096C,2026-05-13T07:54:00.684576,12.42890892,.00098945,82.5164,105.6756,299.0843,60.9245,0,U,44907,999,28930,.23866782E-3,.43E-6,0
RS-44 & BREEZE-KM R/B,2019-096E,2026-05-13T01:23:31.682112,12.79748097,.02166732,82.5231,3.0518,226.3468,131.9492,0,U,44909,999,29785,.10535322E-4,.13E-6,0
JILIN-1 KUANFU 01,2020-003A,2026-05-13T04:16:52.049280,15.10519108,.00111798,97.5037,207.8206,67.4296,292.8116,0,U,45016,999,35004,.10925923E-3,.1739E-4,0
XINGYUN-2 01,2020-028A,2026-05-13T06:13:10.574688,15.11655078,.00084245,97.4863,126.3586,335.0306,25.0516,0,U,45602,999,32956,.11327252E-3,.1863E-4,0
XINGYUN-2 02,2020-028B,2026-05-13T07:08:55.384800,15.11390099,.00121232,97.5081,139.9067,38.7243,321.4854,0,U,45603,999,32956,.10366862E-3,.1688E-4,0
HAIYANG-1D,2020-036A,2026-05-13T07:10:24.084768,14.34162276,.00014786,98.4535,75.7400,248.2582,111.8446,0,U,45721,999,30997,.14587077E-3,.366E-5,0
M2 PATHFINDER,2020-037E,2026-05-13T01:34:03.794016,15.04519449,.00101005,97.8165,323.9044,271.8573,88.1495,0,U,45727,999,32021,.12006284E-3,.1619E-4,0
GAOFEN DUOMO (GFDM),2020-042A,2026-05-13T07:33:12.017952,14.76828348,.00108523,97.7768,194.4658,178.1540,181.9713,0,U,45856,999,31586,.13134019E-4,.43E-6,0
ZIYUAN 3-03 (ZY 3-03),2020-051A,2026-05-13T07:49:03.982656,15.21478815,.00070807,97.2853,202.1736,76.8577,283.3449,0,U,45939,999,32204,.15289356E-3,.3372E-4,0
NEMO-HD,2020-061F,2026-05-13T07:58:00.246720,15.43873103,.00023539,97.1945,195.6518,122.7073,237.4403,0,U,46277,999,31660,.1579376E-3,.7081E-4,0
NAPA-1,2020-061BA,2026-05-13T06:23:17.428416,15.63681129,.0001781,97.2492,206.4168,142.4586,217.6798,0,U,46320,999,31627,.39136698E-3,.36418E-3,0
JILIN-1 GAOFEN 3E,2020-065D,2026-05-13T04:03:20.573568,15.59749768,.0009666,97.2296,185.0693,285.5254,74.4935,0,U,46457,999,31429,.40023935E-3,.32056E-3,0
JILIN-1 GAOFEN 3F,2020-065E,2026-05-13T04:53:10.531968,15.57560805,.001125,97.2251,182.5914,273.1498,86.8471,0,U,46458,999,31425,.36170271E-3,.2667E-3,0
JILIN-1 GAOFEN 3G,2020-065F,2026-05-13T04:16:07.097952,15.65509458,.00123471,97.2325,188.8547,171.1766,188.9714,0,U,46459,999,31445,.45973443E-3,.46232E-3,0
JILIN-1 GAOFEN 3H,2020-065G,2026-05-13T05:06:47.381760,15.63055815,.00091332,97.2270,185.4003,118.5780,241.6399,0,U,46460,999,31441,.41988843E-3,.38219E-3,0
HAIYANG-2C,2020-066A,2026-05-13T05:56:14.459712,13.83372347,.00101951,65.9978,302.2770,240.4921,119.5131,0,U,46469,999,28466,.15935727E-3,.94E-6,0
HJ-2A,2020-067A,2026-05-13T06:22:43.201056,14.76566843,.00041566,97.8825,212.4607,39.4238,320.7274,0,U,46478,999,30310,.88531249E-4,.568E-5,0
HJ-2B,2020-067B,2026-05-13T05:37:09.462720,14.76509256,.00013435,97.8888,213.4257,74.0770,286.0588,0,U,46479,999,30310,-.20571757E-4,-.193E-5,0
