TIANYAN 01              
1 44881U 19093C   26133.24334529  .00000668  00000+0  81587-4 0  9996
2 44881  97.7538 206.3266 0012986 195.7812 164.3001 14.86461687346223
TIANYAN 02              
1 44882U 19093D   26133.28018081  .00004538  00000+0  32556-3 0  9994
2 44882  97.7909 227.7517 0014810 139.6006 220.6323 15.04767153347369
CBERS 4A                
1 44883U 19093E   26133.30901035  .00000387  00000+0  55623-4 0  9997
2 44883  97.7510 201.6647 0000924 350.6746   9.4450 14.81647857345915
WEILAI 1R               
1 44884U 19093F   26133.24399676  .00003228  00000+0  26162-3 0  9995
2 44884  97.7828 223.0937 0015330 144.5377 215.6868 15.00329618347184
FLORIPASAT-1            
1 44885U 19093G   26133.28910355  .00003333  00000+0  24892-3 0  9998
2 44885  97.7878 227.2787 0011859 182.8078 177.3083 15.03475437347406
SHUNTIAN                
1 44886U 19093H   26133.27150779  .00002128  00000+0  19986-3 0  9993
2 44886  97.7996 221.6168 0011874 173.2097 186.9287 14.94981416346961
ELEKTRO-L 3             
1 44903U 19095A   26133.05058013 -.00000083  00000+0  00000+0 0  9991
2 44903   0.1650  79.0829 0001241 331.5024 274.4004  1.00271714 23352
GONETS-M 14             
1 44905U 19096A   26133.27290956 -.00000001  00000+0 -78715-4 0  9996
2 44905  82.5198 106.2857 0012198 226.7290 133.2772 12.42868838289346
GONETS-M 15             
1 44906U 19096B   26133.30235138 -.00000047  00000+0 -41272-3 0  9999
2 44906  82.5218 106.7235 0013924 251.7578 108.1986 12.42869930289319
GONETS-M 16             
1 44907U 19096C   26133.32917459  .00000043  00000+0  23867-3 0  9999
2 44907  82.5164 105.6756 0009894 299.0843  60.9245 12.42890892289300
RS-44 & BREEZE-KM R/B   
1 44909U 19096E   26133.05800558  .00000013  00000+0  10535-4 0  9998
2 44909  82.5231   3.0518 0216673 226.3468 131.9492 12.79748097297856
JILIN-1 KUANFU 01       
1 45016U 20003A   26133.17838020  .00001739  00000+0  10926-3 0  9995
2 45016  97.5037 207.8206 0011179  67.4296 292.8116 15.10519108350049
XINGYUN-2 01            
1 45602U 20028A   26133.25915017  .00001863  00000+0  11327-3 0  9998
2 45602  97.4863 126.3586 0008424 335.0306  25.0516 15.11655078329568
XINGYUN-2 02            
1 45603U 20028B   26133.29786325  .00001688  00000+0  10367-3 0  9999
2 45603  97.5081 139.9067 0012123  38.7243 321.4854 15.11390099329561
HAIYANG-1D              
1 45721U 20036A   26133.29888987  .00000366  00000+0  14587-3 0  9996
2 45721  98.4535  75.7400 0001478 248.2582 111.8446 14.34162276309978
M2 PATHFINDER           
1 45727U 20037E   26133.06532169  .00001619  00000+0  12006-3 0  9992
2 45727  97.8165 323.9044 0010100 271.8573  88.1495 15.04519449320218
GAOFEN DUOMO (GFDM)     
1 45856U 20042A   26133.31472243  .00000043  00000+0  13134-4 0  9999
2 45856  97.7768 194.4658 0010852 178.1540 181.9713 14.76828348315867
ZIYUAN 3-03 (ZY 3-03)   
1 45939U 20051A   26133.32574054  .00003372  00000+0  15289-3 0  9995
2 45939  97.2853 202.1736 0007080  76.8577 283.3449 15.21478815322048
NEMO-HD                 
1 46277U 20061F   26133.33194730  .00007081  00000+0  15794-3 0  9994
2 46277  97.1945 195.6518 0002353 122.7073 237.4403 15.43873103316607
NAPA-1                  
1 46320U 20061BA  26133.26617394  .00036418  00000+0  39137-3 0  9994
2 46320  97.2492 206.4168 0001781 142.4586 217.6798 15.63681129316275
JILIN-1 GAOFEN 3E       
1 46457U 20065D   26133.16898812  .00032056  00000+0  40024-3 0  9995
2 46457  97.2296 185.0693 0009666 285.5254  74.4935 15.59749768314295
JILIN-1 GAOFEN 3F       
1 46458U 20065E   26133.20359412  .00026670  00000+0  36170-3 0  9991
2 46458  97.2251 182.5914 0011250 273.1498  86.8471 15.57560805314259
JILIN-1 GAOFEN 3G       
1 46459U 20065F   26133.17785993  .00046232  00000+0  45973-3 0  9992
2 46459  97.2325 188.8547 0012347 171.1766 188.9714 15.65509458314458
JILIN-1 GAOFEN 3H       
1 46460U 20065G   26133.21304840  .00038219  00000+0  41989-3 0  9996
2 46460  97.2270 185.4003 0009133 118.5780 241.6399 15.63055815314412
HAIYANG-2C              
1 46469U 20066A   26133.24738958  .00000094  00000+0  15936-3 0  9993
2 46469  65.9978 302.2770 0010195 240.4921 119.5131 13.83372347284662
HJ-2A                   
1 46478U 20067A   26133.26577779  .00000568  00000+0  88531-4 0  9996
2 46478  97.8825 212.4607 0004156  39.4238 320.7274 14.76566843303109
HJ-2B                   
1 46479U 20067B   26133.23413730 -.00000193  00000+0 -20572-4 0  9997
2 46479  97.8888 213.4257 0001343  74.0770 286.0588 14.76509256303109
